{{Infobox Planet  
| name = 386 Siegena
| image = 
| caption = 
| discovery=yes | physical_characteristics = yes | bgcolour=#FFFFC0
| discovery_ref = 
| discoverer = [[马克斯·沃夫|马克斯·沃夫]]
| discovery_site = [[海德堡|海德堡]]
| discovered =  1894年3月1日
| mp_name = 386
| alt_names = 1894 AY
| named_after = [[锡根|锡根]]
| mp_category=[[小行星带|主带小行星]]
| orbit_ref = <ref>[http://ssd.jpl.nasa.gov/sbdb.cgi?sstr=386 386 Siegena (1894 AY)]</ref>
| epoch = 2011年8月27日
| semimajor=2.894260458873253AU
| perihelion=2.396434184181624AU
| aphelion=3.392086733564882[[天文单位|AU]]
| eccentricity =0.1720046560306583	
| period =1798.476816693612[[日|地球日]]<br>4.92[[年|地球年]] 
| inclination=20.26394268957018[[角度|°]]
| asc_node=166.9129568225543°	
| arg_peri=219.3630708731108°
| mean_anomaly=66.87608360435614°
| avg_speed=17.51 km/s
 | dimensions=165.01千米
 | mass=
 | density=
 | surface_grav=
 | escape_velocity=
 | rotation=9.763[[小时|小时]]
 | spectral_type=[[C-型小行星|C]]
 | magnitude=
 | abs_magnitude=7.43
 | albedo=0.0692
 | single_temperature=
}}
'''小行星386'''（'''386 Siegen'''），是由[[德国|德国]][[天文学家|天文学家]][[马克斯·沃夫|马克斯·沃夫]]于1894年3月1日在德国[[海德堡|海德堡]]发现的[[小行星带|主带]][[小行星|小行星]]。

小行星386以德国城市[[锡根|锡根]]命名。

== 参考资料 ==
{{Reflist}}

{{Minor Planet Number|(385)[[小行星385|小行星385]]|(387)[[小行星387|小行星387]]}}

[[Category:小行星带天体|Category:小行星带天体]]
[[Category:1894年发现的小行星|Category:1894年发现的小行星]]
[[Category:以地名命名的小行星|Category:以地名命名的小行星]]
[[Category:C-型小行星|Category:C-型小行星]]